     2.11           N: GPS NAV DATA                         RINEX VERSION / TYPE
teqc  2016Nov7      IGN                 20170311 00:30:09UTCPGM / RUN BY / DATE
    18                                                      LEAP SECONDS
    1.0245D-08  0.0000D+00 -5.9605D-08  0.0000D+00          ION ALPHA
    9.0112D+04  0.0000D+00 -1.9661D+05  0.0000D+00          ION BETA
    4.656612873077D-09 1.243449787580D-14    61440     1940 DELTA-UTC: A0,A1,T,W
                                                            END OF HEADER
 5 17  3 10 20  0  0.0-5.647679790850D-05 1.932676241270D-12 0.000000000000D+00
    6.100000000000D+01-1.468750000000D+01 4.441613582460D-09 5.146011559810D-01
   -7.040798664090D-07 4.916716017760D-03 1.303665339950D-05 5.153710300450D+03
    5.040000000000D+05-3.166496753690D-08 1.131522515310D-02 1.415610313420D-07
    9.472241322590D-01 1.206562500000D+02 5.500114552820D-01-7.997833141850D-09
    2.971552348510D-10 1.000000000000D+00 1.939000000000D+03 0.000000000000D+00
    2.400000000000D+00 0.000000000000D+00-1.071020960810D-08 6.100000000000D+01
    4.969620000000D+05 4.000000000000D+00
20 17  3 10 20  0  0.0 4.634936340150D-04 1.591615728100D-12 0.000000000000D+00
    6.300000000000D+01-3.106250000000D+01 4.860202446940D-09-1.200986585090D+00
   -1.408159732820D-06 4.511623992580D-03 1.337192952630D-05 5.153652067180D+03
    5.040000000000D+05-4.656612873080D-08-6.739203503450D-02 1.005828380580D-07
    9.273054244390D-01 1.039375000000D+02 1.564348077950D+00-8.211770624640D-09
    2.878691337620D-10 1.000000000000D+00 1.939000000000D+03 0.000000000000D+00
    2.400000000000D+00 0.000000000000D+00-8.381903171540D-09 6.300000000000D+01
    5.000160000000D+05 4.000000000000D+00
18 17  3 10 20  0  0.0 6.038234569132D-04 2.387423592154D-12 0.000000000000D+00
    7.400000000000D+01-4.168750000000D+01 4.990922177656D-09 1.177045057360D+00
   -2.097338438034D-06 1.773871481419D-02 1.323036849499D-05 5.153759447098D+03
    5.040000000000D+05-3.576278686523D-07-1.597958876830D-02-9.685754776001D-08
    9.259740314723D-01 1.090000000000D+02-1.825260987618D+00-8.473567243802D-09
    2.364384200378D-10 1.000000000000D+00 1.939000000000D+03 0.000000000000D+00
    2.000000000000D+00 0.000000000000D+00-1.117587089539D-08 7.400000000000D+01
    4.968180000000D+05 4.000000000000D+00
27 17  3 10 21 59 44.0 2.220184542239D-04 6.025402399246D-12 0.000000000000D+00
    4.000000000000D+00 8.053125000000D+01 4.611263371146D-09 8.394625436702D-01
    4.319474101067D-06 4.503468633629D-03 3.322958946228D-06 5.153658489227D+03
    5.111840000000D+05 9.313225746155D-09-2.073076581904D+00 1.676380634308D-08
    9.739879917665D-01 3.176250000000D+02 2.866964019416D-01-8.434636988852D-09
    2.114373814921D-10 1.000000000000D+00 1.939000000000D+03 0.000000000000D+00
    2.000000000000D+00 0.000000000000D+00 1.862645149231D-09 4.000000000000D+00
    5.046900000000D+05
25 17  3 10 21 59 44.0-3.499342128630D-04-6.707523425580D-12 0.000000000000D+00
    5.000000000000D+00 7.156250000000D+01 3.804801342390D-09 3.136479662740D+00
    3.572553396220D-06 6.287965225060D-03 1.308880746360D-05 5.153630752560D+03
    5.111840000000D+05-5.774199962620D-08-3.112600560650D+00-9.313225746150D-08
    9.779069444920D-01 1.341562500000D+02 7.659023135110D-01-7.557100497850D-09
   -1.821504444400D-11 1.000000000000D+00 1.939000000000D+03 0.000000000000D+00
    2.400000000000D+00 0.000000000000D+00 5.587935447690D-09 5.000000000000D+00
    5.040180000000D+05 4.000000000000D+00
 9 17  3 10 21 59 44.0 3.195311874151D-04 7.617018127348D-12 0.000000000000D+00
    3.300000000000D+01 5.075000000000D+01 5.015923232321D-09 8.963904368654D-01
    2.643093466759D-06 8.965980960056D-04 5.288049578667D-06 5.153670101166D+03
    5.111840000000D+05-4.842877388000D-08 1.063638370727D+00 7.450580596924D-09
    9.536864280449D-01 2.707812500000D+02 1.797935911773D+00-8.404993145916D-09
    5.160929461567D-10 1.000000000000D+00 1.939000000000D+03 0.000000000000D+00
    2.000000000000D+00 0.000000000000D+00 1.396983861923D-09 3.300000000000D+01
    5.091600000000D+05
22 17  3 10 22  0  0.0 7.711350917816D-05-1.170974428533D-11 0.000000000000D+00
    6.200000000000D+01-2.653125000000D+01 5.008065961931D-09 2.286653192970D-01
   -1.251697540283D-06 7.471686345525D-03 1.256167888641D-05 5.153575050354D+03
    5.112000000000D+05-1.806765794754D-07-1.601479828063D-02 2.793967723846D-08
    9.239869088836D-01 1.210937500000D+02-1.789918370222D+00-8.283559616018D-09
    1.810789712620D-10 1.000000000000D+00 1.939000000000D+03 0.000000000000D+00
    2.000000000000D+00 0.000000000000D+00-1.769512891769D-08 6.200000000000D+01
    5.040300000000D+05
 9 17  3 10 22  0  0.0 3.195293247700D-04 7.617018127348D-12 0.000000000000D+00
    8.100000000000D+01 5.075000000000D+01 5.015923232321D-09 8.987173163264D-01
    2.643093466759D-06 8.966018212959D-04 5.288049578667D-06 5.153670099258D+03
    5.112000000000D+05-4.842877388000D-08 1.063638224436D+00 7.450580596924D-09
    9.536864265820D-01 2.707812500000D+02 1.797942799192D+00-8.404993145916D-09
    5.160929461567D-10 1.000000000000D+00 1.939000000000D+03 0.000000000000D+00
    2.800000000000D+00 0.000000000000D+00 1.396983861923D-09 8.100000000000D+01
    5.040300000000D+05
 8 17  3 10 22  0  0.0-5.233008414507D-05-1.364242052659D-12 0.000000000000D+00
    4.000000000000D+01 7.650000000000D+01 4.749840520901D-09 1.384548892133D+00
    3.911554813385D-06 2.572358935140D-03 3.186985850334D-06 5.153596366882D+03
    5.112000000000D+05-1.862645149231D-08-2.078038292396D+00-2.607703208923D-08
    9.658758579321D-01 3.148125000000D+02-8.129522195688D-01-8.434636988852D-09
    1.992940118489D-10 1.000000000000D+00 1.939000000000D+03 0.000000000000D+00
    2.000000000000D+00 0.000000000000D+00 4.656612873077D-09 4.000000000000D+01
    5.040300000000D+05
31 17  3 10 22  0  0.0 2.142740413547D-04-2.273736754432D-12 0.000000000000D+00
    2.500000000000D+01-5.690625000000D+01 4.713410550750D-09-2.228422938417D+00
   -2.961605787277D-06 8.495920803398D-03 7.983297109604D-06 5.153659746170D+03
    5.112000000000D+05-1.881271600723D-07 2.153347411860D+00-9.872019290924D-08
    9.676463530746D-01 2.324375000000D+02-2.716299329913D-01-8.103194559794D-09
   -5.535945035717D-10 1.000000000000D+00 1.939000000000D+03 0.000000000000D+00
    2.000000000000D+00 0.000000000000D+00-1.350417733192D-08 2.500000000000D+01
    5.040300000000D+05
14 17  3 10 22  0  0.0-6.220536306500D-05-1.591615728103D-12 0.000000000000D+00
    8.600000000000D+01 4.187500000000D+01 4.992708024787D-09 3.937421335117D-01
    2.078711986542D-06 8.768549188972D-03 5.140900611877D-06 5.153623691559D+03
    5.112000000000D+05-1.229345798492D-07 1.149788764997D+00 3.352761268616D-08
    9.622546909588D-01 2.813125000000D+02-1.958429381702D+00-8.508568960508D-09
    3.814444593520D-10 1.000000000000D+00 1.939000000000D+03 0.000000000000D+00
    2.000000000000D+00 0.000000000000D+00-9.313225746155D-09 8.600000000000D+01
    5.040300000000D+05
27 17  3 10 22  0  0.0 2.220189198852D-04 6.025402399246D-12 0.000000000000D+00
    1.510000000000D+02 8.053125000000D+01 4.611263371146D-09 8.417967640541D-01
    4.321336746216D-06 4.503475618549D-03 3.322958946228D-06 5.153658485413D+03
    5.112000000000D+05 9.313225746155D-09-2.073076728195D+00 1.676380634308D-08
    9.739880034698D-01 3.176250000000D+02 2.866959411224D-01-8.434636988852D-09
    2.114373814921D-10 1.000000000000D+00 1.939000000000D+03 0.000000000000D+00
    2.800000000000D+00 0.000000000000D+00 1.862645149231D-09 1.510000000000D+02
    5.040300000000D+05
23 17  3 10 22  0  0.0-2.072704955935D-04-9.094947017729D-13 0.000000000000D+00
    5.100000000000D+01 5.153125000000D+01 5.319864548881D-09-5.154479587964D-01
    2.892687916756D-06 1.134114176966D-02 5.280598998070D-06 5.153776823044D+03
    5.112000000000D+05 8.009374141693D-08 1.066178436851D+00 1.788139343262D-07
    9.445680201580D-01 2.683750000000D+02-2.493546571046D+00-8.663217698768D-09
    4.946634768466D-10 1.000000000000D+00 1.939000000000D+03 0.000000000000D+00
    2.000000000000D+00 0.000000000000D+00-2.002343535423D-08 5.100000000000D+01
    5.040300000000D+05
32 17  3 10 22  0  0.0-3.478638827801D-04-1.296029950026D-11 0.000000000000D+00
    3.000000000000D+01 4.937500000000D+01 4.998422564739D-09 1.603497151133D+00
    2.471730113029D-06 8.592450758442D-04 5.343928933144D-06 5.153697286606D+03
    5.112000000000D+05 3.725290298462D-09 1.066448808982D+00 2.421438694000D-08
    9.581992157920D-01 2.709375000000D+02-2.756775688190D+00-8.388206573784D-09
    5.028780725169D-10 1.000000000000D+00 1.939000000000D+03 0.000000000000D+00
    2.000000000000D+00 0.000000000000D+00 4.656612873077D-10 3.000000000000D+01
    5.040300000000D+05
21 17  3 10 22  0  0.0-5.179531872272D-04 1.818989403546D-12 0.000000000000D+00
    6.200000000000D+01-1.212812500000D+02 4.993422120236D-09 3.127420113898D+00
   -6.265938282013D-06 2.398149331566D-02 4.634261131287D-06 5.153728616714D+03
    5.112000000000D+05 3.539025783539D-07-1.056771680497D+00-5.587935447693D-08
    9.387942014153D-01 2.740937500000D+02-1.698422640063D+00-8.181769040050D-09
   -4.703767375602D-10 1.000000000000D+00 1.939000000000D+03 0.000000000000D+00
    2.000000000000D+00 0.000000000000D+00-9.778887033463D-09 6.200000000000D+01
    5.040300000000D+05
26 17  3 10 22  0  0.0-5.189226940274D-04 1.023181539495D-12 0.000000000000D+00
    1.180000000000D+02 6.337500000000D+01 4.357681326894D-09 2.627380458268D+00
    3.293156623840D-06 1.764361280948D-03 1.331791281700D-05 5.153675758362D+03
    5.112000000000D+05-3.911554813385D-08-3.126635464620D+00 2.235174179077D-08
    9.597102170627D-01 1.224687500000D+02-1.587391634376D-02-7.857470230022D-09
   -1.357199422292D-11 1.000000000000D+00 1.939000000000D+03 0.000000000000D+00
    2.800000000000D+00 0.000000000000D+00 6.984919309616D-09 1.180000000000D+02
    5.040300000000D+05
